MOLNIYA 2-9             
1 07276U 74026A   22225.11396894  .00000105  00000+0  00000+0 0  9999
2 07276  64.2811 219.2400 6459018 280.6528  17.2636  2.45097628250609
MOLNIYA 2-10            
1 07376U 74056A   22226.07430221 -.00001137  00000+0  00000+0 0  9999
2 07376  64.1965  88.8387 6736913 286.2740  13.6160  2.01155249351546
MOLNIYA 1-S             
1 07392U 74060A   22226.84381593 -.00000044  00000+0  00000+0 0  9990
2 07392   4.9731 282.0617 0011856 210.5939 204.8265  1.00199211120119
MOLNIYA 1-29            
1 07780U 75036A   22227.99472729  .00000074  00000+0 -37614-1 0  9990
2 07780  63.4174 208.5814 6890452 288.6678  11.9575  2.00628784346846
MOLNIYA 2-14            
1 08195U 75081A   22227.06886024  .00001291  00000+0  00000+0 0  9994
2 08195  63.3854 181.6759 6794875 292.8938  11.4520  2.02075946344074
MOLNIYA 1-32            
1 08601U 76006A   22227.01401354 -.00000704  00000+0  14647-1 0  9991
2 08601  63.4820 289.4419 7244678 283.8025  11.2537  2.00086177 53832
MOLNIYA 1-36            
1 09880U 77021A   22228.16149838  .00000378  00000+0  00000+0 0  9994
2 09880  63.4874 260.7187 7171176 289.6848  10.2332  2.00904017230655
MOLNIYA 3-8             
1 10455U 77105A   22227.37658964 -.00000352  00000+0  84601-3 0  9990
2 10455  63.3894 348.9062 7369680 282.2550  10.8773  2.00845705328320
MOLNIYA 1-40            
1 10925U 78055A   22226.55814589  .00000468  00000+0  00000+0 0  9997
2 10925  63.3880  39.9146 7262709 280.6663  11.8008  2.00701611323849
MOLNIYA 3-10            
1 11057U 78095A   22228.36667627 -.00000219  00000+0 -56304-3 0  9996
2 11057  63.1747  17.1740 5792177 310.7710  11.7364  4.09853585386197
MOLNIYA 3-13            
1 11896U 80063A   22226.78932908  .00000351  00000+0  00000+0 0  9999
2 11896  62.6978 130.0321 7103098 276.3396  14.0876  2.00656881308260
MOLNIYA 1-49            
1 12156U 81009A   22226.04657841  .00001239  00000+0 -18500-2 0  9993
2 12156  61.6980 156.8237 7269452 263.1015  17.2699  2.05695024222678
MOLNIYA 1-52            
1 13012U 81123A   22228.12438644 -.00000591  00000+0 -92320-2 0  9994
2 13012  61.7365 270.2181 7240089 255.5746  20.8143  2.00401062297845
MOLNIYA 1-53            
1 13070U 82015A   22227.91017083 -.00001069  00000+0 -28516-2 0  9992
2 13070  62.6356 206.8650 7034259 282.8206  12.6250  2.00782526296449
MOLNIYA 3-20            
1 13875U 83015A   22227.41689499  .00001273  00000+0  26576-2 0  9996
2 13875  62.7088 343.4575 7401934 258.5719  17.9832  2.00470034224933
MOLNIYA 1-56            
1 13890U 83019A   22224.70726840 -.00000468  00000+0  58402-3 0  9998
2 13890  62.9961   9.1172 7448708 264.5279  15.3012  1.99983749287726
MOLNIYA 1-63            
1 15429U 84124A   22227.38103109  .00001061  00000+0  00000+0 0  9996
2 15429  63.7504 162.1815 6641864 259.3471 339.9965  2.00800140275933
MOLNIYA 3-24            
1 15738U 85040A   22224.88383743 -.00000070  00000+0  00000+0 0  9993
2 15738  63.6682  72.2861 6814941 247.2877  30.6887  2.55627202305318
MOLNIYA 3-27            
1 16393U 85117A   22226.60781403 -.00000108  00000+0  00000+0 0  9995
2 16393  64.3949  73.9636 6990875 248.1368  27.9518  2.12397033275410
MOLNIYA 1-69            
1 17078U 86089A   22222.69834299  .00000026  00000+0  00000+0 0  9990
2 17078  63.9927 181.4612 6646847 257.8261  25.8416  2.00680988261912
MOLNIYA 3-31            
1 17328U 87008A   22227.77652453  .00000443  00000+0  00000+0 0  9997
2 17328  63.6950 121.6998 7047909 253.7921  23.8173  2.00604130257085
MOLNIYA 1-71            
1 18946U 88017A   22226.72505076 -.00000212  00000+0  00000+0 0  9992
2 18946  63.4107 115.8714 7160702 256.4318  21.2390  2.00649796252223
MOLNIYA 1-75            
1 19807U 89014A   22221.95366246  .00000128  00000+0  00000+0 0  9996
2 19807  64.0556 278.7327 6854059 266.8378  19.5377  2.00581458245079
MOLNIYA 1-80            
1 21118U 91012A   22226.12233434  .00000353  00000+0  00000+0 0  9991
2 21118  65.1923 326.6439 6787836 276.9056  16.3458  2.05232665232166
MOLNIYA 3-40            
1 21196U 91022A   22222.52209771  .00001076  00000+0  00000+0 0  9998
2 21196  65.1084 320.6382 6818971 273.7438  17.2165  2.02994642230783
MOLNIYA 1-81            
1 21426U 91043A   22226.85392600 -.00000037  00000+0  00000+0 0  9998
2 21426  64.1103 336.6438 7097410 266.6959  17.5192  2.00633325228333
MOLNIYA 3-41            
1 21706U 91065A   22227.12479548  .00000788  00000+0  00000+0 0  9993
2 21706  64.1006 159.6896 6845581 255.3812  25.1234  2.04340612228069
MOLNIYA 3-42            
1 22178U 92067A   22225.95593307  .00000163  00000+0  00000+0 0  9996
2 22178  64.6764 209.8825 6427297 266.1649  23.5979  2.20435680 81329
MOLNIYA 1-86            
1 22671U 93035A   22227.70820949  .00000330  00000+0  45020-3 0  9991
2 22671  63.0885 202.5052 4860374   7.9586 357.5579  5.62686465355634
MOLNIYA 1-87            
1 22949U 93079A   22223.76180689  .00000796  00000+0  00000+0 0  9990
2 22949  63.9843  85.9429 6878776 284.0977  13.3262  2.02870603 76057
MOLNIYA 1-88            
1 23420U 94081A   22227.08997589  .00000086  00000+0  00000+0 0  9995
2 23420  64.2798 182.7632 5802385 282.0056  21.6772  3.34498070115664
MOLNIYA 3-47            
1 23642U 95042A   22221.25576715  .00001184  00000+0  00000+0 0  9996
2 23642  64.0938  68.0201 6929248 284.3788  12.9078  2.01948208198083
MOLNIYA 1-90            
1 24960U 97054A   22227.71276762  .00000039  00000+0 -44624-2 0  9993
2 24960  63.6403 149.2195 6112317 298.3341  13.7978  3.18689192209897
MOLNIYA 1-91            
1 25485U 98054A   22228.11366400  .00000142  00000+0  22925-2 0  9995
2 25485  63.0289 140.9147 6774050 291.8947  69.3173  2.36444566179780
MOLNIYA 3-50            
1 25847U 99036A   22227.33121276  .00000208  00000+0  52519-3 0  9997
2 25847  63.2063 325.2981 7378989 282.0863  10.8862  2.00653658169295
